start=new Date('2023-06-16T00:00:00.000Z').valueOf();
sats=[{"MEAN_MOTION_DOT":"0.00000196","INCLINATION":"53.0534","PERIOD":"95.592","GP_ID":"233993896","OBJECT_ID":"2020-062K","ECCENTRICITY":"0.00011260","OBJECT_NAME":"STARLINK-1725","CLASSIFICATION_TYPE":"U","SITE":"AFETR","CENTER_NAME":"EARTH","APOAPSIS":"548.009","SEMIMAJOR_AXIS":"6925.364","BSTAR":"0.00003205600000","OBJECT_TYPE":"PAYLOAD","RA_OF_ASC_NODE":"157.1304","MEAN_MOTION":"15.06394868","EPHEMERIS_TYPE":"0","TLE_LINE2":"2 46334  53.0534 157.1304 0001126  92.6014 267.5104 15.06394868154347","COUNTRY_CODE":"US","MEAN_MOTION_DDOT":"0.0000000000000","RCS_SIZE":"LARGE","NORAD_CAT_ID":"46334","EPOCH":"2023-06-15T16:20:13.596288","FILE":"3933891","DECAY_DATE":null,"LAUNCH_DATE":"2020-09-03","MEAN_ELEMENT_THEORY":"SGP4","MEAN_ANOMALY":"267.5104","ELEMENT_SET_NO":"999","ARG_OF_PERICENTER":"92.6014","PERIAPSIS":"546.449","REV_AT_EPOCH":"15434","TLE_LINE1":"1 46334U 20062K   23166.68071292  .00000196  00000-0  32056-4 0  9999","TIME_SYSTEM":"UTC","REF_FRAME":"TEME"},{"SITE":"AFETR","CENTER_NAME":"EARTH","APOAPSIS":"547.947","SEMIMAJOR_AXIS":"6925.350","OBJECT_TYPE":"PAYLOAD","BSTAR":"0.00009016200000","RA_OF_ASC_NODE":"177.9203","MEAN_MOTION":"15.06399582","EPHEMERIS_TYPE":"0","TLE_LINE2":"2 46335  53.0535 177.9203 0001057  97.8652 262.2457 15.06399582153851","INCLINATION":"53.0535","MEAN_MOTION_DOT":"0.00001062","PERIOD":"95.592","GP_ID":"233985698","OBJECT_ID":"2020-062L","OBJECT_NAME":"STARLINK-1727","ECCENTRICITY":"0.00010570","CLASSIFICATION_TYPE":"U","ELEMENT_SET_NO":"999","ARG_OF_PERICENTER":"97.8652","PERIAPSIS":"546.483","REV_AT_EPOCH":"15385","TLE_LINE1":"1 46335U 20062L   23166.44294141  .00001062  00000-0  90162-4 0  9999","TIME_SYSTEM":"UTC","REF_FRAME":"TEME","COUNTRY_CODE":"US","RCS_SIZE":"LARGE","MEAN_MOTION_DDOT":"0.0000000000000","NORAD_CAT_ID":"46335","EPOCH":"2023-06-15T10:37:50.137824","FILE":"3933820","DECAY_DATE":null,"LAUNCH_DATE":"2020-09-03","MEAN_ANOMALY":"262.2457","MEAN_ELEMENT_THEORY":"SGP4"},{"NORAD_CAT_ID":"46336","RCS_SIZE":"LARGE","MEAN_MOTION_DDOT":"0.0000000000000","COUNTRY_CODE":"US","MEAN_ANOMALY":"270.9989","MEAN_ELEMENT_THEORY":"SGP4","DECAY_DATE":null,"LAUNCH_DATE":"2020-09-03","EPOCH":"2023-06-15T16:46:43.349376","FILE":"3934071","PERIAPSIS":"546.563","REV_AT_EPOCH":"15416","ELEMENT_SET_NO":"999","ARG_OF_PERICENTER":"89.1111","REF_FRAME":"TEME","TIME_SYSTEM":"UTC","TLE_LINE1":"1 46336U 20062M   23166.69911284  .00000192  00000-0  31789-4 0  9994","OBJECT_ID":"2020-062M","GP_ID":"234018406","PERIOD":"95.593","MEAN_MOTION_DOT":"0.00000192","INCLINATION":"53.0538","CLASSIFICATION_TYPE":"U","OBJECT_NAME":"STARLINK-1738","ECCENTRICITY":"0.00009720","APOAPSIS":"547.910","CENTER_NAME":"EARTH","SITE":"AFETR","TLE_LINE2":"2 46336  53.0538 156.7723 0000972  89.1111 270.9989 15.06392478154164","EPHEMERIS_TYPE":"0","RA_OF_ASC_NODE":"156.7723","MEAN_MOTION":"15.06392478","OBJECT_TYPE":"PAYLOAD","BSTAR":"0.00003178900000","SEMIMAJOR_AXIS":"6925.372"},{"TLE_LINE2":"2 46337  53.0534 156.7035 0001122  78.9505 281.1610 15.06399292154175","EPHEMERIS_TYPE":"0","RA_OF_ASC_NODE":"156.7035","MEAN_MOTION":"15.06399292","BSTAR":"0.00005694100000","OBJECT_TYPE":"PAYLOAD","SEMIMAJOR_AXIS":"6925.351","CENTER_NAME":"EARTH","APOAPSIS":"547.993","SITE":"AFETR","CLASSIFICATION_TYPE":"U","ECCENTRICITY":"0.00011220","OBJECT_NAME":"STARLINK-1750","OBJECT_ID":"2020-062N","GP_ID":"234016668","PERIOD":"95.592","INCLINATION":"53.0534","MEAN_MOTION_DOT":"0.00000567","REF_FRAME":"TEME","TIME_SYSTEM":"UTC","TLE_LINE1":"1 46337U 20062N   23166.71385270  .00000567  00000-0  56941-4 0  9991","PERIAPSIS":"546.439","REV_AT_EPOCH":"15417","ELEMENT_SET_NO":"999","ARG_OF_PERICENTER":"78.9505","MEAN_ELEMENT_THEORY":"SGP4","MEAN_ANOMALY":"281.1610","LAUNCH_DATE":"2020-09-03","DECAY_DATE":null,"EPOCH":"2023-06-15T17:07:56.873280","FILE":"3934071","NORAD_CAT_ID":"46337","RCS_SIZE":"LARGE","MEAN_MOTION_DDOT":"0.0000000000000","COUNTRY_CODE":"US"},{"RA_OF_ASC_NODE":"176.4806","MEAN_MOTION":"15.06401674","TLE_LINE2":"2 46338  53.0535 176.4806 0001212  80.3010 279.8116 15.06401674153891","EPHEMERIS_TYPE":"0","SEMIMAJOR_AXIS":"6925.343","OBJECT_TYPE":"PAYLOAD","BSTAR":"0.00004465000000","SITE":"AFETR","APOAPSIS":"548.048","CENTER_NAME":"EARTH","ECCENTRICITY":"0.00012120","OBJECT_NAME":"STARLINK-1752","CLASSIFICATION_TYPE":"U","GP_ID":"234016918","OBJECT_ID":"2020-062P","MEAN_MOTION_DOT":"0.00000384","INCLINATION":"53.0535","PERIOD":"95.592","REF_FRAME":"TEME","TLE_LINE1":"1 46338U 20062P   23166.76361244  .00000384  00000-0  44650-4 0  9993","TIME_SYSTEM":"UTC","PERIAPSIS":"546.369","REV_AT_EPOCH":"15389","ELEMENT_SET_NO":"999","ARG_OF_PERICENTER":"80.3010","MEAN_ELEMENT_THEORY":"SGP4","MEAN_ANOMALY":"279.8116","EPOCH":"2023-06-15T18:19:36.114816","FILE":"3934071","LAUNCH_DATE":"2020-09-03","DECAY_DATE":null,"RCS_SIZE":"LARGE","MEAN_MOTION_DDOT":"0.0000000000000","NORAD_CAT_ID":"46338","COUNTRY_CODE":"US"},{"CLASSIFICATION_TYPE":"U","ECCENTRICITY":"0.00010280","OBJECT_NAME":"STARLINK-1759","OBJECT_ID":"2020-062R","GP_ID":"234017667","PERIOD":"95.593","MEAN_MOTION_DOT":"-0.00000054","INCLINATION":"53.0545","EPHEMERIS_TYPE":"0","TLE_LINE2":"2 46340  53.0545 176.6069 0001028  97.5434 262.5672 15.06393797153884","MEAN_MOTION":"15.06393797","RA_OF_ASC_NODE":"176.6069","OBJECT_TYPE":"PAYLOAD","BSTAR":"0.00001526200000","SEMIMAJOR_AXIS":"6925.368","APOAPSIS":"547.944","CENTER_NAME":"EARTH","SITE":"AFETR","MEAN_ELEMENT_THEORY":"SGP4","MEAN_ANOMALY":"262.5672","LAUNCH_DATE":"2020-09-03","DECAY_DATE":null,"EPOCH":"2023-06-15T17:42:27.163296","FILE":"3934071","NORAD_CAT_ID":"46340","MEAN_MOTION_DDOT":"0.0000000000000","RCS_SIZE":"LARGE","COUNTRY_CODE":"US","REF_FRAME":"TEME","TIME_SYSTEM":"UTC","TLE_LINE1":"1 46340U 20062R   23166.73781439 -.00000054  00000-0  15262-4 0  9997","REV_AT_EPOCH":"15388","PERIAPSIS":"546.521","ARG_OF_PERICENTER":"97.5434","ELEMENT_SET_NO":"999"},{"APOAPSIS":"547.861","CENTER_NAME":"EARTH","SITE":"AFETR","EPHEMERIS_TYPE":"0","TLE_LINE2":"2 46341  53.0536 156.8671 0000918  90.7885 269.3209 15.06396162154179","RA_OF_ASC_NODE":"156.8671","MEAN_MOTION":"15.06396162","OBJECT_TYPE":"PAYLOAD","BSTAR":"-0.00001291500000","SEMIMAJOR_AXIS":"6925.360","OBJECT_ID":"2020-062S","GP_ID":"234017907","PERIOD":"95.592","MEAN_MOTION_DOT":"-0.00000474","INCLINATION":"53.0536","CLASSIFICATION_TYPE":"U","ECCENTRICITY":"0.00009180","OBJECT_NAME":"STARLINK-1760","PERIAPSIS":"546.590","REV_AT_EPOCH":"15417","ELEMENT_SET_NO":"999","ARG_OF_PERICENTER":"90.7885","REF_FRAME":"TEME","TIME_SYSTEM":"UTC","TLE_LINE1":"1 46341U 20062S   23166.67699106 -.00000474  00000-0 -12915-4 0  9999","NORAD_CAT_ID":"46341","RCS_SIZE":"LARGE","MEAN_MOTION_DDOT":"0.0000000000000","COUNTRY_CODE":"US","MEAN_ELEMENT_THEORY":"SGP4","MEAN_ANOMALY":"269.3209","DECAY_DATE":null,"LAUNCH_DATE":"2020-09-03","EPOCH":"2023-06-15T16:14:52.027584","FILE":"3934071"},{"ARG_OF_PERICENTER":"88.1781","ELEMENT_SET_NO":"999","REV_AT_EPOCH":"15389","PERIAPSIS":"546.448","TLE_LINE1":"1 46342U 20062T   23166.72306911  .00000032  00000-0  21050-4 0  9993","TIME_SYSTEM":"UTC","REF_FRAME":"TEME","COUNTRY_CODE":"US","RCS_SIZE":"LARGE","MEAN_MOTION_DDOT":"0.0000000000000","NORAD_CAT_ID":"46342","FILE":"3934071","EPOCH":"2023-06-15T17:21:13.171104","DECAY_DATE":null,"LAUNCH_DATE":"2020-09-03","MEAN_ELEMENT_THEORY":"SGP4","MEAN_ANOMALY":"271.9336","SITE":"AFETR","APOAPSIS":"547.989","CENTER_NAME":"EARTH","SEMIMAJOR_AXIS":"6925.354","BSTAR":"0.00002105000000","OBJECT_TYPE":"PAYLOAD","MEAN_MOTION":"15.06398366","RA_OF_ASC_NODE":"176.6660","EPHEMERIS_TYPE":"0","TLE_LINE2":"2 46342  53.0538 176.6660 0001113  88.1781 271.9336 15.06398366153890","MEAN_MOTION_DOT":"0.00000032","INCLINATION":"53.0538","PERIOD":"95.592","GP_ID":"234017168","OBJECT_ID":"2020-062T","ECCENTRICITY":"0.00011130","OBJECT_NAME":"STARLINK-1762","CLASSIFICATION_TYPE":"U"},{"ARG_OF_PERICENTER":"86.9893","ELEMENT_SET_NO":"999","REV_AT_EPOCH":"15412","PERIAPSIS":"546.356","TIME_SYSTEM":"UTC","TLE_LINE1":"1 46343U 20062U   23166.38579866  .00000379  00000-0  44326-4 0  9992","REF_FRAME":"TEME","COUNTRY_CODE":"US","NORAD_CAT_ID":"46343","MEAN_MOTION_DDOT":"0.0000000000000","RCS_SIZE":"LARGE","DECAY_DATE":null,"LAUNCH_DATE":"2020-09-03","FILE":"3933820","EPOCH":"2023-06-15T09:15:33.004224","MEAN_ANOMALY":"273.1236","MEAN_ELEMENT_THEORY":"SGP4","APOAPSIS":"548.051","CENTER_NAME":"EARTH","SITE":"AFETR","OBJECT_TYPE":"PAYLOAD","BSTAR":"0.00004432600000","SEMIMAJOR_AXIS":"6925.338","EPHEMERIS_TYPE":"0","TLE_LINE2":"2 46343  53.0542 158.1777 0001224  86.9893 273.1236 15.06403343154125","MEAN_MOTION":"15.06403343","RA_OF_ASC_NODE":"158.1777","PERIOD":"95.592","MEAN_MOTION_DOT":"0.00000379","INCLINATION":"53.0542","OBJECT_ID":"2020-062U","GP_ID":"233984948","CLASSIFICATION_TYPE":"U","OBJECT_NAME":"STARLINK-1764","ECCENTRICITY":"0.00012240"},{"OBJECT_TYPE":"PAYLOAD","BSTAR":"0.00000498990000","SEMIMAJOR_AXIS":"6925.355","TLE_LINE2":"2 46344  53.0528 156.8997 0001164  86.6152 273.4971 15.06397972154160","EPHEMERIS_TYPE":"0","MEAN_MOTION":"15.06397972","RA_OF_ASC_NODE":"156.8997","APOAPSIS":"548.026","CENTER_NAME":"EARTH","SITE":"AFETR","CLASSIFICATION_TYPE":"U","OBJECT_NAME":"STARLINK-1765","ECCENTRICITY":"0.00011640","PERIOD":"95.592","INCLINATION":"53.0528","MEAN_MOTION_DOT":"-0.00000207","OBJECT_ID":"2020-062V","GP_ID":"234018167","TIME_SYSTEM":"UTC","TLE_LINE1":"1 46344U 20062V   23166.66961923 -.00000207  00000-0  49899-5 0  9995","REF_FRAME":"TEME","ARG_OF_PERICENTER":"86.6152","ELEMENT_SET_NO":"999","REV_AT_EPOCH":"15416","PERIAPSIS":"546.414","LAUNCH_DATE":"2020-09-03","DECAY_DATE":null,"EPOCH":"2023-06-15T16:04:15.101472","FILE":"3934071","MEAN_ELEMENT_THEORY":"SGP4","MEAN_ANOMALY":"273.4971","COUNTRY_CODE":"US","NORAD_CAT_ID":"46344","RCS_SIZE":"LARGE","MEAN_MOTION_DDOT":"0.0000000000000"}];
